[{"OBJECT_NAME":"STARLINK-3184","OBJECT_ID":"2022-005AR","EPOCH":"2026-03-09T22:49:37.787520","MEAN_MOTION":15.08832675,"ECCENTRICITY":0.00014218,"INCLINATION":53.2186,"RA_OF_ASC_NODE":307.9465,"ARG_OF_PERICENTER":92.1976,"MEAN_ANOMALY":267.9179,"EPHEMERIS_TYPE":0,"CLASSIFICATION_TYPE":"U","NORAD_CAT_ID":51143,"ELEMENT_SET_NO":999,"REV_AT_EPOCH":22863,"BSTAR":5.6323526e-5,"MEAN_MOTION_DOT":6.08e-6,"MEAN_MOTION_DDOT":0},{"OBJECT_NAME":"MEGSAT-1","OBJECT_ID":"2000-057B","EPOCH":"2026-03-09T22:47:17.292480","MEAN_MOTION":15.04862037,"ECCENTRICITY":0.0038022,"INCLINATION":64.552,"RA_OF_ASC_NODE":26.971,"ARG_OF_PERICENTER":294.4401,"MEAN_ANOMALY":65.2751,"EPHEMERIS_TYPE":0,"CLASSIFICATION_TYPE":"U","NORAD_CAT_ID":26546,"ELEMENT_SET_NO":999,"REV_AT_EPOCH":38272,"BSTAR":0.00040228449,"MEAN_MOTION_DOT":5.624e-5,"MEAN_MOTION_DDOT":0}]
